[
    {
        "Altitude(m)": 559391.9992061808,
        "Argument of Periapsis(deg)": 0.033114955553567506,
        "Eccentricity": 0.0,
        "Inclination(deg)": 53.0,
        "Latitude(deg)": 50.92948400092982,
        "Longitude(deg)": -1.5976300208372012,
        "Mean Anomaly(deg)": 75.91256433788794,
        "RAAN(deg)": 34.950716842640084,
        "Satellite Name": "Starlink Shell 1 155",
        "Satellite Number": 155,
        "Semi-Major Axis(m)": 6931778.249405717,
        "Time(s)": 950
    },
    {
        "Altitude(m)": 559435.2546600837,
        "Argument of Periapsis(deg)": 0.03346353403307874,
        "Eccentricity": 0.0,
        "Inclination(deg)": 53.0,
        "Latitude(deg)": 51.118224973765656,
        "Longitude(deg)": -0.6910740645075351,
        "Mean Anomaly(deg)": 76.53939554144465,
        "RAAN(deg)": 34.95019807256261,
        "Satellite Name": "Starlink Shell 1 155",
        "Satellite Number": 155,
        "Semi-Major Axis(m)": 6931778.249405717,
        "Time(s)": 960
    },
    {
        "Altitude(m)": 559476.7203922794,
        "Argument of Periapsis(deg)": 0.03381211251258998,
        "Eccentricity": 0.0,
        "Inclination(deg)": 53.0,
        "Latitude(deg)": 51.29921910181288,
        "Longitude(deg)": 0.22307092373367435,
        "Mean Anomaly(deg)": 77.16622674500137,
        "RAAN(deg)": 34.94967930248514,
        "Satellite Name": "Starlink Shell 1 155",
        "Satellite Number": 155,
        "Semi-Major Axis(m)": 6931778.249405717,
        "Time(s)": 970
    },
    {
        "Altitude(m)": 559516.3713603236,
        "Argument of Periapsis(deg)": 0.034160690992101214,
        "Eccentricity": 0.0,
        "Inclination(deg)": 53.0,
        "Latitude(deg)": 51.47235580483622,
        "Longitude(deg)": 1.1445893592518377,
        "Mean Anomaly(deg)": 77.79305794855807,
        "RAAN(deg)": 34.94916053240767,
        "Satellite Name": "Starlink Shell 1 155",
        "Satellite Number": 155,
        "Semi-Major Axis(m)": 6931778.249405717,
        "Time(s)": 980
    },
    {
        "Altitude(m)": 559554.183638604,
        "Argument of Periapsis(deg)": 0.034509269471612446,
        "Eccentricity": 0.0,
        "Inclination(deg)": 53.0,
        "Latitude(deg)": 51.637527368402374,
        "Longitude(deg)": 2.0732497145070377,
        "Mean Anomaly(deg)": 78.41988915211479,
        "RAAN(deg)": 34.94864176233019,
        "Satellite Name": "Starlink Shell 1 155",
        "Satellite Number": 155,
        "Semi-Major Axis(m)": 6931778.249405717,
        "Time(s)": 990
    }
]